QUANTUTONG 1            
1 43158U 18008D   20358.14179050  .00000725  00000-0  47040-4 0  9996
2 43158  97.4246  60.8866 0012639 211.9450 202.9855 15.11058647161313
S-NET D                 
1 43186U 18014G   20357.69306846  .00001013  00000-0  93183-4 0  9998
2 43186  97.6867 262.3555 0009791 321.4551  38.5970 14.96930029157853
S-NET B                 
1 43187U 18014H   20357.69293220  .00001013  00000-0  93137-4 0  9999
2 43187  97.6864 262.3279 0009786 321.4327  38.6194 14.96929615157857
S-NET A                 
1 43188U 18014J   20358.02705958  .00001005  00000-0  92484-4 0  9999
2 43188  97.6867 262.6935 0009757 320.3278  39.7229 14.96929058157902
S-NET C                 
1 43189U 18014K   20358.02755444  .00001015  00000-0  93327-4 0  9993
2 43189  97.6864 262.6509 0009751 320.2407  39.8100 14.96929317156450
FENGMANIU-1 (FMN-1)     
1 43192U 18015A   20358.11466527  .00003968  00000-0  15352-3 0  9999
2 43192  97.4658 127.0967 0016137 140.7854 323.0485 15.26678365160673
SHAONIAN XING           
1 43199U 18015H   20358.10172069  .00002877  00000-0  11245-3 0  9995
2 43199  97.4446 124.8345 0017194 150.3601 313.5038 15.26558680160733
UBAKUSAT                
1 43467U 98067NQ  20358.17241148  .01131151  92967-3  70981-3 0  9997
2 43467  51.6271  17.0866 0006368  53.5329  26.2035 16.17286322150031
LUOJIA-1 01             
1 43485U 18048B   20358.17001388  .00000210  00000-0  37288-4 0  9996
2 43485  97.9772  76.1239 0012250 139.9772 220.2355 14.76766711137975
EQUISAT                 
1 43552U 98067PA  20357.96213175  .01598997  11833-4  87860-3 0  9990
2 43552  51.6204  26.4296 0006971  51.5637 308.6005 16.18786369140088
RADSAT-G                
1 43553U 98067PB  20357.43909425  .00077460  00000-0  37581-3 0  9994
2 43553  51.6375  52.1119 0004972  53.2502 306.8956 15.81759828139753
SIRIUSSAT-1             
1 43595U 98067PG  20344.55055662  .07916525  12514-4  56251-3 0  9997
2 43595  51.6588  97.6693 0009437  42.2825  52.9592 16.39998780132780
SIRIUSSAT-2             
1 43596U 98067PH  20344.36554324  .08904132  12494-4  57179-3 0  9995
2 43596  51.6062  99.6513 0006261 312.7483  99.6145 16.40921535132742
SURFSAT                 
1 43614U 18070B   20357.42939181  .00005836  00000-0  14373-3 0  9991
2 43614  93.0271 232.4840 0013667 341.6268  18.4491 15.40519118127404
CP7 (DAVE)              
1 43615U 18070C   20357.74197135  .00005718  00000-0  14184-3 0  9991
2 43615  93.0273 232.5905 0013770 339.8457  20.2252 15.40302180127443
ELFIN-B                 
1 43616U 18070D   20358.17220936  .00009393  00000-0  21789-3 0  9998
2 43616  93.0232 232.7941 0013845 338.3497  21.7172 15.42294666127585
ELFIN-A                 
1 43617U 18070E   20358.17604536  .00008881  00000-0  20386-3 0  9994
2 43617  93.0286 233.4743 0013072 335.3772  24.6858 15.42623478127599
1998-067PP              
1 43639U 98067PP  20358.15010914  .00093251  00000-0  41650-3 0  9993
2 43639  51.6305  54.3519 0005415  24.9853 335.1411 15.83451766126519
STARS-ME                
1 43640U 98067PQ  20357.47661998  .00044869  00000-0  31181-3 0  9992
2 43640  51.6338  70.1509 0004557  18.6772 341.4393 15.73932144126240
CZ-4B R/B               
1 43656U 18081B   20358.21049215 -.00000004  00000-0  17077-4 0  9995
2 43656  99.3716  78.8986 0207708 259.5894  98.1818 14.30447894112972
CUBEBEL-1 (BSUSAT-1)    
1 43666U 18083E   20358.10233369  .00001562  00000-0  78305-4 0  9991
2 43666  97.4736  22.5826 0016355  66.0935  22.0520 15.18733526119246
CHANGSHAGAOXIN (TY 4-01)
1 43669U 18083H   20358.08946463  .00001013  00000-0  53582-4 0  9998
2 43669  97.4624  20.1856 0012275  61.8250  22.7644 15.17665757119133
TEN-KOH                 
1 43677U 18084G   20358.08810954  .00000372  00000-0  44093-4 0  9997
2 43677  97.9016 114.9346 0014705 254.9890 104.9701 14.90372645117038
DIWATA-2B               
1 43678U 18084H   20358.23989632  .00000462  00000-0  51692-4 0  9998
2 43678  97.9040 116.8830 0008445 274.3475  85.6801 14.91691151117161
STARS-AO                
1 43679U 18084J   20357.29548484  .00000663  00000-0  70482-4 0  9991
2 43679  97.9077 116.8806 0007792 285.6968  74.3391 14.92356349117067
AUTCUBE 2               
1 43681U 18084K   20357.61180135  .00000567  00000-0  61739-4 0  9993
2 43681  97.9046 116.4958 0008091 276.6659  83.3638 14.91960603117045
IRVINE01                
1 43693U 18088D   20357.36578664  .00007002  00000-0  28609-3 0  9999
2 43693  85.0340 312.5304 0015726 327.2851  32.7416 15.24069206117450
ES'HAIL 2               
1 43700U 18090A   20357.77312341  .00000154  00000-0  00000+0 0  9996
2 43700   0.0186  25.2303 0001526 270.0658 100.5864  1.00272456  7848
FACSAT-1                
1 43721U 18096C   20358.08056865  .00002678  00000-0  10047-3 0  9995
2 43721  97.4045  70.5193 0017514 170.9236 238.8802 15.27974556115187
CENTAURI-2              
1 43722U 18096D   20358.15187794  .00005199  00000-0  18795-3 0  9999
2 43722  97.4060  71.0789 0017428 170.2687 189.8894 15.28751569115217
3CAT-1                  
1 43728U 18096K   20358.06845640  .00003459  00000-0  12484-3 0  9992
2 43728  97.4069  71.4663 0017235 174.7677 280.1906 15.29057535115224
INNOSAT-2               
1 43738U 18096V   20358.06089330  .00004908  00000-0  16167-3 0  9991
2 43738  97.4092  73.8027 0022737 175.8038 306.8557 15.31704437115385
REAKTOR HELLO WORLD     
1 43743U 18096AA  20357.74763968  .00003013  00000-0  11248-3 0  9998
2 43743  97.4049  70.5435 0017642 177.1905 182.9437 15.28032859115149
ELYSIUM STAR 2 & LFF    
1 43760U 18099C   20358.16428356  .00001595  00000-0  14726-3 0  9993
2 43760  97.6910  66.8238 0012023 276.9229  83.0648 14.95969067112157
2018-099D               
1 43761U 18099D   20358.14807651  .00000566  00000-0  56662-4 0  9994
2 43761  97.6880  66.4508 0012791 279.5368  80.4450 14.95209721112117
AISTECHSAT 2            
1 43768U 18099L   20357.45337213  .00000166  00000-0  20501-4 0  9995
2 43768  97.6852  64.8709 0010052 281.9634  78.0459 14.94777180111703
FOX-1CLIFF (AO-95)      
1 43770U 18099N   20357.44474898  .00000141  00000-0  18069-4 0  9997
2 43770  97.6877  65.3608 0013213 291.3710  68.6100 14.95144289112000
RANGE-A                 
1 43772U 18099Q   20357.43864136  .00000424  00000-0  43530-4 0  9991
2 43772  97.6954  66.0942 0012719 277.2123  82.7651 14.95388781112003
RANGE-B                 
1 43773U 18099R   20357.23937764 -.00000010  00000-0  43233-5 0  9991
2 43773  97.6815  64.6484 0012101 278.1893  81.7955 14.95083406111960
2018-099T               
1 43775U 18099T   20357.71832003  .00000032  00000-0  81587-5 0  9993
2 43775  97.6879  65.8332 0013207 280.5584  79.4149 14.95169254112033
MOVE-II                 
1 43780U 18099Y   20357.47157031  .00001239  00000-0  11649-3 0  9993
2 43780  97.6886  65.7401 0012039 287.4059  72.5846 14.95642956112019
SNUSAT-2                
1 43782U 18099AA  20357.43993865  .00000132  00000-0  17097-4 0  9999
2 43782  97.6875  65.6354 0011321 276.6138  83.3794 14.95401814112014
SNUGLITE                
1 43784U 18099AC  20357.72986083  .00000652  00000-0  63952-4 0  9995
2 43784  97.6836  65.6934 0013654 283.2455  76.7243 14.95508974112070
ITASAT 1                
1 43786U 18099AE  20357.46707205  .00000640  00000-0  62930-4 0  9997
2 43786  97.6892  65.9366 0013734 283.4489  76.5201 14.95460726112034
KAZSCISAT-1             
1 43787U 18099AF  20357.44053176  .00000362  00000-0  37531-4 0  9997
2 43787  97.6804  65.1795 0012810 281.0447  78.9333 14.95840766112047
EAGLET-I                
1 43790U 18099AJ  20357.74580462  .00000951  00000-0  90186-4 0  9996
2 43790  97.6883  66.5477 0011938 287.2493  72.7421 14.95841872111799
ESEO                    
1 43792U 18099AL  20357.77327625 -.00000227  00000-0 -15232-4 0  9998
2 43792  97.6854  66.2943 0011883 284.7477  75.2427 14.95667142111854
CSIM-FD                 
1 43793U 18099AM  20358.15313747  .00001433  00000-0  13177-3 0  9995
2 43793  97.6868  66.8056 0011363 277.9005  82.0927 14.96305239111909
ASTROCAST 0.1           
1 43798U 18099AS  20357.78269068 -.00000107  00000-0 -44366-5 0  9999
2 43798  97.6883  66.7252 0011061 264.6968  95.2991 14.95990706112102
JY1SAT (JO-97)          
1 43803U 18099AX  20357.45783731  .00000473  00000-0  47642-4 0  9991
2 43803  97.6852  65.7059 0013769 283.6556  76.3131 14.95669028112038
SUOMI-100               
1 43804U 18099AY  20357.72807685  .00000586  00000-0  57772-4 0  9997
2 43804  97.6848  65.9500 0013805 282.7259  77.2419 14.95650190112082
AL-FARABI 2             
1 43805U 18099AZ  20357.88574349  .00001215  00000-0  11384-3 0  9991
2 43805  97.6847  66.2480 0013534 280.9521  79.0165 14.95818656112119
CENTAURI-1              
1 43809U 18099BD  20357.74228633  .00000850  00000-0  81440-4 0  9997
2 43809  97.6865  66.2321 0013656 283.8641  76.1061 14.95694060111783
PW-SAT2                 
1 43814U 18099BJ  20358.14844738  .00202324  00000-0  60008-2 0  9993
2 43814  97.7896  84.6888 0011920 254.0172 105.9757 15.33925560112360
CHOMPTT                 
1 43855U 18104G   20357.66081134  .00001802  00000-0  73585-4 0  9998
2 43855  85.0377  50.6424 0019595  80.2150 280.1304 15.23436119112178
DAVINCI                 
1 43857U 18104J   20357.70832487  .00005831  00000-0  23841-3 0  9995
2 43857  85.0331  50.6865 0017508 103.4891 256.8304 15.23975622112156
UWE-4                   
1 43880U 18111E   20357.69360095  .00001237  00000-0  11341-3 0  9996
2 43880  97.6958 262.3531 0011708 343.8563  16.2284 14.96668438106645
ZACUBE-2                
1 43907U 18111AH  20358.09519458  .00000874  00000-0  37788-4 0  9990
2 43907  97.2489 251.9829 0020716 192.5708 303.6629 15.24868128110756
MICRODRAGON             
1 43935U 19003D   20357.79278495  .00001586  00000-0  70379-4 0  9995
2 43935  97.2073  40.6126 0016419 292.3016  67.6480 15.22868121107215
AOBA VELOX-IV           
1 43940U 19003J   20357.38939755  .00003918  00000-0  15465-3 0  9994
2 43940  97.2050  42.0415 0021538 278.3959  81.4838 15.25900783107294
